{
    "links": {
        "self": "http://www.neowsapp.com/rest/v1/neo/3773660?api_key=iIulBulltgU6a56xZRHN4H3l9WmuAYTsLGpBGhQ2"
    },
    "id": "3773660",
    "neo_reference_id": "3773660",
    "name": "(2017 FP128)",
    "designation": "2017 FP128",
    "nasa_jpl_url": "http://ssd.jpl.nasa.gov/sbdb.cgi?sstr=3773660",
    "absolute_magnitude_h": 23.9,
    "estimated_diameter": {
        "kilometers": {
            "estimated_diameter_min": 0.04411182,
            "estimated_diameter_max": 0.0986370281
        },
        "meters": {
            "estimated_diameter_min": 44.1118199997,
            "estimated_diameter_max": 98.6370281305
        },
        "miles": {
            "estimated_diameter_min": 0.0274098057,
            "estimated_diameter_max": 0.0612901888
        },
        "feet": {
            "estimated_diameter_min": 144.7238235278,
            "estimated_diameter_max": 323.6123073718
        }
    },
    "is_potentially_hazardous_asteroid": false,
    "close_approach_data": [
        {
            "close_approach_date": "2017-03-31",
            "close_approach_date_full": "2017-Mar-31 08:59",
            "epoch_date_close_approach": 1490950740000,
            "relative_velocity": {
                "kilometers_per_second": "8.3965418562",
                "kilometers_per_hour": "30227.5506823784",
                "miles_per_hour": "18782.2244781701"
            },
            "miss_distance": {
                "astronomical": "0.0210192196",
                "lunar": "8.1764764244",
                "kilometers": "3144430.481222252",
                "miles": "1953858.4994089976"
            },
            "orbiting_body": "Earth"
        },
        {
            "close_approach_date": "2098-01-22",
            "close_approach_date_full": "2098-Jan-22 06:57",
            "epoch_date_close_approach": 4041212220000,
            "relative_velocity": {
                "kilometers_per_second": "19.8588191779",
                "kilometers_per_hour": "71491.7490404054",
                "miles_per_hour": "44422.192619023"
            },
            "miss_distance": {
                "astronomical": "0.4058421084",
                "lunar": "157.8725801676",
                "kilometers": "60713114.972949108",
                "miles": "37725380.2950613704"
            },
            "orbiting_body": "Earth"
        }
    ],
    "orbital_data": {
        "orbit_id": "5",
        "orbit_determination_date": "2017-06-22 06:20:55",
        "first_observation_date": "2017-03-30",
        "last_observation_date": "2017-04-08",
        "data_arc_in_days": 9,
        "observations_used": 170,
        "orbit_uncertainty": "7",
        "minimum_orbit_intersection": ".0216665",
        "jupiter_tisserand_invariant": "3.456",
        "epoch_osculation": "2459000.5",
        "eccentricity": ".5432230929428054",
        "semi_major_axis": "2.191232799258429",
        "inclination": "7.032724702022818",
        "ascending_node_longitude": "17.5085996611601",
        "orbital_period": "1184.762247318686",
        "perihelion_distance": "1.000904540687544",
        "perihelion_argument": "156.7732043415506",
        "aphelion_distance": "3.381561057829314",
        "perihelion_time": "2459014.774479040360",
        "mean_anomaly": "355.6625791662761",
        "mean_motion": ".3038584330440474",
        "equinox": "J2000",
        "orbit_class": {
            "orbit_class_type": "APO",
            "orbit_class_description": "Near-Earth asteroid orbits which cross the Earth’s orbit similar to that of 1862 Apollo",
            "orbit_class_range": "a (semi-major axis) > 1.0 AU; q (perihelion) < 1.017 AU"
        }
    },
    "is_sentry_object": false
}